{
  "type": "FeatureCollection",
  "features": [
    {
      "type": "Feature",
      "properties": {
        "norad_id": 34079,
        "name": "IRIDIUM 33 DEB",
        "group": "iridium-33-debris",
        "lat": -54.19778978855364,
        "lon": 7.8832201006084475,
        "alt_km": 626.6117730236774,
        "timestamp": "2025-12-03T08:58:46.387310+00:00",
        "meta_object_name": "IRIDIUM 33 DEB",
        "meta_object_id": "1997-051CN",
        "meta_epoch": "2025-12-03T02:59:12.786720",
        "meta_mean_motion": 14.83124546,
        "meta_eccentricity": 0.000675,
        "meta_inclination": 86.3786,
        "meta_ra_of_asc_node": 13.034,
        "meta_arg_of_pericenter": 37.1097,
        "meta_mean_anomaly": 16.3841,
        "meta_ephemeris_type": 0,
        "meta_classification_type": "U",
        "meta_norad_cat_id": 34079,
        "meta_element_set_no": 999,
        "meta_rev_at_epoch": 88835,
        "meta_bstar": 0.0021591,
        "meta_mean_motion_dot": 0.0001765,
        "meta_mean_motion_ddot": 0,
        "tle_line1": "1 34079U 97051CN  25337.12445355  .00017650  00000+0  21591-2 0  9992",
        "tle_line2": "2 34079  86.3786  13.0340 0006750  37.1097  16.3841 14.83124546888352"
      },
      "geometry": {
        "type": "Point",
        "coordinates": [
          7.8832201006084475,
          -54.19778978855364
        ]
      }
    },
    {
      "type": "Feature",
      "properties": {
        "norad_id": 34088,
        "name": "IRIDIUM 33 DEB",
        "group": "iridium-33-debris",
        "lat": 41.70027343410662,
        "lon": -148.203135556367,
        "alt_km": 591.6904244835923,
        "timestamp": "2025-12-03T08:58:46.387320+00:00",
        "meta_object_name": "IRIDIUM 33 DEB",
        "meta_object_id": "1997-051CX",
        "meta_epoch": "2025-12-03T03:39:34.765344",
        "meta_mean_motion": 14.90613486,
        "meta_eccentricity": 0.0005128,
        "meta_inclination": 86.3861,
        "meta_ra_of_asc_node": 35.1266,
        "meta_arg_of_pericenter": 211.9517,
        "meta_mean_anomaly": 177.5165,
        "meta_ephemeris_type": 0,
        "meta_classification_type": "U",
        "meta_norad_cat_id": 34088,
        "meta_element_set_no": 999,
        "meta_rev_at_epoch": 88599,
        "meta_bstar": 0.0035306,
        "meta_mean_motion_dot": 0.00034721,
        "meta_mean_motion_ddot": 0,
        "tle_line1": "1 34088U 97051CX  25337.15248571  .00034721  00000+0  35306-2 0  9993",
        "tle_line2": "2 34088  86.3861  35.1266 0005128 211.9517 177.5165 14.90613486885995"
      },
      "geometry": {
        "type": "Point",
        "coordinates": [
          -148.203135556367,
          41.70027343410662
        ]
      }
    },
    {
      "type": "Feature",
      "properties": {
        "norad_id": 34091,
        "name": "IRIDIUM 33 DEB",
        "group": "iridium-33-debris",
        "lat": -67.35332542184302,
        "lon": 62.29845619051626,
        "alt_km": 615.7640976822095,
        "timestamp": "2025-12-03T08:58:46.387331+00:00",
        "meta_object_name": "IRIDIUM 33 DEB",
        "meta_object_id": "1997-051DA",
        "meta_epoch": "2025-12-02T05:42:26.763264",
        "meta_mean_motion": 14.80503091,
        "meta_eccentricity": 0.0032917,
        "meta_inclination": 86.342,
        "meta_ra_of_asc_node": 71.638,
        "meta_arg_of_pericenter": 331.035,
        "meta_mean_anomaly": 28.9043,
        "meta_ephemeris_type": 0,
        "meta_classification_type": "U",
        "meta_norad_cat_id": 34091,
        "meta_element_set_no": 999,
        "meta_rev_at_epoch": 87711,
        "meta_bstar": 0.0059169,
        "meta_mean_motion_dot": 0.00045975,
        "meta_mean_motion_ddot": 0,
        "tle_line1": "1 34091U 97051DA  25336.23780976  .00045975  00000+0  59169-2 0  9991",
        "tle_line2": "2 34091  86.3420  71.6380 0032917 331.0350  28.9043 14.80503091877115"
      },
      "geometry": {
        "type": "Point",
        "coordinates": [
          62.29845619051626,
          -67.35332542184302
        ]
      }
    },
    {
      "type": "Feature",
      "properties": {
        "norad_id": 34097,
        "name": "IRIDIUM 33 DEB",
        "group": "iridium-33-debris",
        "lat": -53.221389583421455,
        "lon": 0.4418540679479288,
        "alt_km": 778.4783397696247,
        "timestamp": "2025-12-03T08:58:46.387341+00:00",
        "meta_object_name": "IRIDIUM 33 DEB",
        "meta_object_id": "1997-051DG",
        "meta_epoch": "2025-12-03T02:31:49.024992",
        "meta_mean_motion": 14.34656827,
        "meta_eccentricity": 0.0083703,
        "meta_inclination": 86.2008,
        "meta_ra_of_asc_node": 5.6603,
        "meta_arg_of_pericenter": 33.4512,
        "meta_mean_anomaly": 327.1931,
        "meta_ephemeris_type": 0,
        "meta_classification_type": "U",
        "meta_norad_cat_id": 34097,
        "meta_element_set_no": 999,
        "meta_rev_at_epoch": 86981,
        "meta_bstar": 0.0016815,
        "meta_mean_motion_dot": 4.966e-05,
        "meta_mean_motion_ddot": 0,
        "tle_line1": "1 34097U 97051DG  25337.10542853  .00004966  00000+0  16815-2 0  9990",
        "tle_line2": "2 34097  86.2008   5.6603 0083703  33.4512 327.1931 14.34656827869812"
      },
      "geometry": {
        "type": "Point",
        "coordinates": [
          0.4418540679479288,
          -53.221389583421455
        ]
      }
    },
    {
      "type": "Feature",
      "properties": {
        "norad_id": 34145,
        "name": "IRIDIUM 33 DEB",
        "group": "iridium-33-debris",
        "lat": -36.38712369592303,
        "lon": -26.10064651667068,
        "alt_km": 794.7085634427203,
        "timestamp": "2025-12-03T08:58:46.387351+00:00",
        "meta_object_name": "IRIDIUM 33 DEB",
        "meta_object_id": "1997-051DY",
        "meta_epoch": "2025-12-03T00:49:25.529664",
        "meta_mean_motion": 14.42178924,
        "meta_eccentricity": 0.005527,
        "meta_inclination": 86.2113,
        "meta_ra_of_asc_node": 336.8496,
        "meta_arg_of_pericenter": 124.685,
        "meta_mean_anomaly": 235.9576,
        "meta_ephemeris_type": 0,
        "meta_classification_type": "U",
        "meta_norad_cat_id": 34145,
        "meta_element_set_no": 999,
        "meta_rev_at_epoch": 87498,
        "meta_bstar": 0.0013049,
        "meta_mean_motion_dot": 4.395e-05,
        "meta_mean_motion_ddot": 0,
        "tle_line1": "1 34145U 97051DY  25337.03432326  .00004395  00000+0  13049-2 0  9991",
        "tle_line2": "2 34145  86.2113 336.8496 0055270 124.6850 235.9576 14.42178924874989"
      },
      "geometry": {
        "type": "Point",
        "coordinates": [
          -26.10064651667068,
          -36.38712369592303
        ]
      }
    },
    {
      "type": "Feature",
      "properties": {
        "norad_id": 34146,
        "name": "IRIDIUM 33 DEB",
        "group": "iridium-33-debris",
        "lat": 84.66170878762108,
        "lon": 129.86533090667115,
        "alt_km": 738.5001098923331,
        "timestamp": "2025-12-03T08:58:46.387362+00:00",
        "meta_object_name": "IRIDIUM 33 DEB",
        "meta_object_id": "1997-051DZ",
        "meta_epoch": "2025-12-03T02:11:34.445760",
        "meta_mean_motion": 14.48936814,
        "meta_eccentricity": 0.0024976,
        "meta_inclination": 86.2837,
        "meta_ra_of_asc_node": 354.0631,
        "meta_arg_of_pericenter": 256.2583,
        "meta_mean_anomaly": 163.5864,
        "meta_ephemeris_type": 0,
        "meta_classification_type": "U",
        "meta_norad_cat_id": 34146,
        "meta_element_set_no": 999,
        "meta_rev_at_epoch": 87967,
        "meta_bstar": 0.001285,
        "meta_mean_motion_dot": 4.904e-05,
        "meta_mean_motion_ddot": 0,
        "tle_line1": "1 34146U 97051DZ  25337.09137090  .00004904  00000+0  12850-2 0  9993",
        "tle_line2": "2 34146  86.2837 354.0631 0024976 256.2583 163.5864 14.48936814879673"
      },
      "geometry": {
        "type": "Point",
        "coordinates": [
          129.86533090667115,
          84.66170878762108
        ]
      }
    },
    {
      "type": "Feature",
      "properties": {
        "norad_id": 34159,
        "name": "IRIDIUM 33 DEB",
        "group": "iridium-33-debris",
        "lat": 16.951068997630546,
        "lon": -128.88033134158852,
        "alt_km": 781.7500391763642,
        "timestamp": "2025-12-03T08:58:46.387373+00:00",
        "meta_object_name": "IRIDIUM 33 DEB",
        "meta_object_id": "1997-051EN",
        "meta_epoch": "2025-12-03T04:53:03.077376",
        "meta_mean_motion": 14.38453701,
        "meta_eccentricity": 0.0026522,
        "meta_inclination": 86.3516,
        "meta_ra_of_asc_node": 52.3067,
        "meta_arg_of_pericenter": 321.2041,
        "meta_mean_anomaly": 38.7252,
        "meta_ephemeris_type": 0,
        "meta_classification_type": "U",
        "meta_norad_cat_id": 34159,
        "meta_element_set_no": 999,
        "meta_rev_at_epoch": 87822,
        "meta_bstar": 0.0005403,
        "meta_mean_motion_dot": 1.674e-05,
        "meta_mean_motion_ddot": 0,
        "tle_line1": "1 34159U 97051EN  25337.20350784  .00001674  00000+0  54030-3 0  9995",
        "tle_line2": "2 34159  86.3516  52.3067 0026522 321.2041  38.7252 14.38453701878226"
      },
      "geometry": {
        "type": "Point",
        "coordinates": [
          -128.88033134158852,
          16.951068997630546
        ]
      }
    }
  ]
}